CCSDS_OMM_VERS = 2.0
CREATION_DATE  = 
ORIGINATOR     = 

OBJECT_NAME    = RSP-03
OBJECT_ID      = 1998-067XL
CENTER_NAME    = EARTH
REF_FRAME      = TEME
TIME_SYSTEM    = UTC
MEAN_ELEMENT_THEORY = SGP/SGP4

EPOCH          = 2026-02-14T06:01:59.152512
MEAN_MOTION    = 16.18384736
ECCENTRICITY   = .00099788
INCLINATION    = 51.6107
RA_OF_ASC_NODE = 165.9525
ARG_OF_PERICENTER = 332.1364
MEAN_ANOMALY   = 27.9118

EPHEMERIS_TYPE = 0
CLASSIFICATION_TYPE = U
NORAD_CAT_ID   = 65732
ELEMENT_SET_NO = 999
REV_AT_EPOCH   = 2322
BSTAR          = .13341704E-2
MEAN_MOTION_DOT = .2369596E-1
MEAN_MOTION_DDOT = .11827428E-4

CCSDS_OMM_VERS = 2.0
CREATION_DATE  = 
ORIGINATOR     = 

OBJECT_NAME    = YOTSUBA-KULOVER
OBJECT_ID      = 1998-067XN
CENTER_NAME    = EARTH
REF_FRAME      = TEME
TIME_SYSTEM    = UTC
MEAN_ELEMENT_THEORY = SGP/SGP4

EPOCH          = 2026-02-14T05:52:30.921312
MEAN_MOTION    = 15.72411013
ECCENTRICITY   = .00044497
INCLINATION    = 51.6246
RA_OF_ASC_NODE = 178.0885
ARG_OF_PERICENTER = 299.8232
MEAN_ANOMALY   = 60.2324

EPHEMERIS_TYPE = 0
CLASSIFICATION_TYPE = U
NORAD_CAT_ID   = 65941
ELEMENT_SET_NO = 999
REV_AT_EPOCH   = 1980
BSTAR          = .10773507E-2
MEAN_MOTION_DOT = .148508E-2
MEAN_MOTION_DDOT = 0

CCSDS_OMM_VERS = 2.0
CREATION_DATE  = 
ORIGINATOR     = 

OBJECT_NAME    = BOTAN
OBJECT_ID      = 1998-067XP
CENTER_NAME    = EARTH
REF_FRAME      = TEME
TIME_SYSTEM    = UTC
MEAN_ELEMENT_THEORY = SGP/SGP4

EPOCH          = 2026-02-14T06:09:52.001568
MEAN_MOTION    = 15.88758377
ECCENTRICITY   = .00079734
INCLINATION    = 51.6157
RA_OF_ASC_NODE = 173.6046
ARG_OF_PERICENTER = 322.9275
MEAN_ANOMALY   = 37.1178

EPHEMERIS_TYPE = 0
CLASSIFICATION_TYPE = U
NORAD_CAT_ID   = 65942
ELEMENT_SET_NO = 999
REV_AT_EPOCH   = 1986
BSTAR          = .15238472E-2
MEAN_MOTION_DOT = .463784E-2
MEAN_MOTION_DDOT = 0

CCSDS_OMM_VERS = 2.0
CREATION_DATE  = 
ORIGINATOR     = 

OBJECT_NAME    = E-KAGAKU-1
OBJECT_ID      = 1998-067XQ
CENTER_NAME    = EARTH
REF_FRAME      = TEME
TIME_SYSTEM    = UTC
MEAN_ELEMENT_THEORY = SGP/SGP4

EPOCH          = 2026-02-13T14:38:57.410880
MEAN_MOTION    = 15.72107679
ECCENTRICITY   = .00041847
INCLINATION    = 51.6267
RA_OF_ASC_NODE = 181.3641
ARG_OF_PERICENTER = 310.1577
MEAN_ANOMALY   = 49.9054

EPHEMERIS_TYPE = 0
CLASSIFICATION_TYPE = U
NORAD_CAT_ID   = 65943
ELEMENT_SET_NO = 999
REV_AT_EPOCH   = 1970
BSTAR          = .93827869E-3
MEAN_MOTION_DOT = .127268E-2
MEAN_MOTION_DDOT = 0

CCSDS_OMM_VERS = 2.0
CREATION_DATE  = 
ORIGINATOR     = 

OBJECT_NAME    = HRC MONOBLOCK CAMERA
OBJECT_ID      = 1998-067XR
CENTER_NAME    = EARTH
REF_FRAME      = TEME
TIME_SYSTEM    = UTC
MEAN_ELEMENT_THEORY = SGP/SGP4

EPOCH          = 2026-02-13T16:35:25.670976
MEAN_MOTION    = 15.59695574
ECCENTRICITY   = .00016897
INCLINATION    = 51.6269
RA_OF_ASC_NODE = 186.4081
ARG_OF_PERICENTER = 7.0564
MEAN_ANOMALY   = 353.0452

EPHEMERIS_TYPE = 0
CLASSIFICATION_TYPE = U
NORAD_CAT_ID   = 66052
ELEMENT_SET_NO = 999
REV_AT_EPOCH   = 1864
BSTAR          = .54837914E-3
MEAN_MOTION_DOT = .44413E-3
MEAN_MOTION_DDOT = 0

CCSDS_OMM_VERS = 2.0
CREATION_DATE  = 
ORIGINATOR     = 

OBJECT_NAME    = HTV-X1
OBJECT_ID      = 2025-241A
CENTER_NAME    = EARTH
REF_FRAME      = TEME
TIME_SYSTEM    = UTC
MEAN_ELEMENT_THEORY = SGP/SGP4

EPOCH          = 2026-02-14T05:08:48.534432
MEAN_MOTION    = 15.48593530
ECCENTRICITY   = .00110623
INCLINATION    = 51.6315
RA_OF_ASC_NODE = 188.3997
ARG_OF_PERICENTER = 96.9141
MEAN_ANOMALY   = 263.3106

EPHEMERIS_TYPE = 0
CLASSIFICATION_TYPE = U
NORAD_CAT_ID   = 66174
ELEMENT_SET_NO = 999
REV_AT_EPOCH   = 51
BSTAR          = .16303535E-3
MEAN_MOTION_DOT = .8429E-4
MEAN_MOTION_DDOT = 0

CCSDS_OMM_VERS = 2.0
CREATION_DATE  = 
ORIGINATOR     = 

OBJECT_NAME    = SZ-21 MODULE
OBJECT_ID      = 2025-246C
CENTER_NAME    = EARTH
REF_FRAME      = TEME
TIME_SYSTEM    = UTC
MEAN_ELEMENT_THEORY = SGP/SGP4

EPOCH          = 2026-02-14T04:23:26.125728
MEAN_MOTION    = 15.66742900
ECCENTRICITY   = .00022755
INCLINATION    = 41.4766
RA_OF_ASC_NODE = 347.8589
ARG_OF_PERICENTER = 294.3248
MEAN_ANOMALY   = 65.7355

EPHEMERIS_TYPE = 0
CLASSIFICATION_TYPE = U
NORAD_CAT_ID   = 66515
ELEMENT_SET_NO = 999
REV_AT_EPOCH   = 1438
BSTAR          = .33554295E-3
MEAN_MOTION_DOT = .36199E-3
MEAN_MOTION_DDOT = 0

CCSDS_OMM_VERS = 2.0
CREATION_DATE  = 
ORIGINATOR     = 

OBJECT_NAME    = SHENZHOU-22
OBJECT_ID      = 2025-272A
CENTER_NAME    = EARTH
REF_FRAME      = TEME
TIME_SYSTEM    = UTC
MEAN_ELEMENT_THEORY = SGP/SGP4

EPOCH          = 2026-02-14T05:20:28.941216
MEAN_MOTION    = 15.59592517
ECCENTRICITY   = .00041385
INCLINATION    = 41.4681
RA_OF_ASC_NODE = 350.8379
ARG_OF_PERICENTER = 88.4317
MEAN_ANOMALY   = 271.6995

EPHEMERIS_TYPE = 0
CLASSIFICATION_TYPE = U
NORAD_CAT_ID   = 66645
ELEMENT_SET_NO = 999
REV_AT_EPOCH   = 26764
BSTAR          = .21135878E-3
MEAN_MOTION_DOT = .17014E-3
MEAN_MOTION_DDOT = 0

CCSDS_OMM_VERS = 2.0
CREATION_DATE  = 
ORIGINATOR     = 

OBJECT_NAME    = SOYUZ-MS 28
OBJECT_ID      = 2025-275A
CENTER_NAME    = EARTH
REF_FRAME      = TEME
TIME_SYSTEM    = UTC
MEAN_ELEMENT_THEORY = SGP/SGP4

EPOCH          = 2026-02-14T05:08:48.534432
MEAN_MOTION    = 15.48593530
ECCENTRICITY   = .00110623
INCLINATION    = 51.6315
RA_OF_ASC_NODE = 188.3997
ARG_OF_PERICENTER = 96.9141
MEAN_ANOMALY   = 263.3106

EPHEMERIS_TYPE = 0
CLASSIFICATION_TYPE = U
NORAD_CAT_ID   = 66664
ELEMENT_SET_NO = 999
REV_AT_EPOCH   = 128
BSTAR          = .16303535E-3
MEAN_MOTION_DOT = .8429E-4
MEAN_MOTION_DDOT = 0

CCSDS_OMM_VERS = 2.0
CREATION_DATE  = 
ORIGINATOR     = 

OBJECT_NAME    = DUPLEX
OBJECT_ID      = 1998-067XS
CENTER_NAME    = EARTH
REF_FRAME      = TEME
TIME_SYSTEM    = UTC
MEAN_ELEMENT_THEORY = SGP/SGP4

EPOCH          = 2026-02-13T22:36:16.359264
MEAN_MOTION    = 15.54550697
ECCENTRICITY   = .00013553
INCLINATION    = 51.6281
RA_OF_ASC_NODE = 188.0819
ARG_OF_PERICENTER = 76.7932
MEAN_ANOMALY   = 283.3210

EPHEMERIS_TYPE = 0
CLASSIFICATION_TYPE = U
NORAD_CAT_ID   = 66906
ELEMENT_SET_NO = 999
REV_AT_EPOCH   = 1143
BSTAR          = .51453997E-3
MEAN_MOTION_DOT = .34258E-3
MEAN_MOTION_DDOT = 0

CCSDS_OMM_VERS = 2.0
CREATION_DATE  = 
ORIGINATOR     = 

OBJECT_NAME    = ISS OBJECT XT
OBJECT_ID      = 1998-067XT
CENTER_NAME    = EARTH
REF_FRAME      = TEME
TIME_SYSTEM    = UTC
MEAN_ELEMENT_THEORY = SGP/SGP4

EPOCH          = 2026-02-13T15:32:46.009536
MEAN_MOTION    = 15.62747982
ECCENTRICITY   = .00020788
INCLINATION    = 51.6268
RA_OF_ASC_NODE = 187.6156
ARG_OF_PERICENTER = 295.0599
MEAN_ANOMALY   = 65.0179

EPHEMERIS_TYPE = 0
CLASSIFICATION_TYPE = U
NORAD_CAT_ID   = 66907
ELEMENT_SET_NO = 999
REV_AT_EPOCH   = 1141
BSTAR          = .11358944E-2
MEAN_MOTION_DOT = .104949E-2
MEAN_MOTION_DDOT = 0

CCSDS_OMM_VERS = 2.0
CREATION_DATE  = 
ORIGINATOR     = 

OBJECT_NAME    = ISS OBJECT XU
OBJECT_ID      = 1998-067XU
CENTER_NAME    = EARTH
REF_FRAME      = TEME
TIME_SYSTEM    = UTC
MEAN_ELEMENT_THEORY = SGP/SGP4

EPOCH          = 2026-02-13T15:31:47.309376
MEAN_MOTION    = 15.62783685
ECCENTRICITY   = .00019369
INCLINATION    = 51.6260
RA_OF_ASC_NODE = 187.6082
ARG_OF_PERICENTER = 299.6563
MEAN_ANOMALY   = 60.4238

EPHEMERIS_TYPE = 0
CLASSIFICATION_TYPE = U
NORAD_CAT_ID   = 66908
ELEMENT_SET_NO = 999
REV_AT_EPOCH   = 1141
BSTAR          = .1133298E-2
MEAN_MOTION_DOT = .104852E-2
MEAN_MOTION_DDOT = 0

